[{"CCSDS_OMM_VERS":"2.0","COMMENT":"GENERATED VIA SPACE-TRACK.ORG API","CREATION_DATE":"2024-02-16T17:39:09","ORIGINATOR":"18 SPCS","OBJECT_NAME":"NAVSTAR 68 (USA 242)","OBJECT_ID":"2013-023A","CENTER_NAME":"EARTH","REF_FRAME":"TEME","TIME_SYSTEM":"UTC","MEAN_ELEMENT_THEORY":"SGP4","EPOCH":"2024-02-16T02:37:36.279552","MEAN_MOTION":"2.00563330","ECCENTRICITY":"0.01221920","INCLINATION":"55.2168","RA_OF_ASC_NODE":"303.4975","ARG_OF_PERICENTER":"42.8128","MEAN_ANOMALY":"318.1796","EPHEMERIS_TYPE":"0","CLASSIFICATION_TYPE":"U","NORAD_CAT_ID":"39166","ELEMENT_SET_NO":"999","REV_AT_EPOCH":"7879","BSTAR":"0.00000000000000","MEAN_MOTION_DOT":"-0.00000059","MEAN_MOTION_DDOT":"0.0000000000000","SEMIMAJOR_AXIS":"26560.372","PERIOD":"717.978","APOAPSIS":"20506.784","PERIAPSIS":"19857.691","OBJECT_TYPE":"PAYLOAD","RCS_SIZE":"LARGE","COUNTRY_CODE":"US","LAUNCH_DATE":"2013-05-15","SITE":"AFETR","DECAY_DATE":null,"FILE":"4190317","GP_ID":"249402053","TLE_LINE0":"0 NAVSTAR 68 (USA 242)","TLE_LINE1":"1 39166U 13023A   24047.10944768 -.00000059  00000-0  00000-0 0  9995","TLE_LINE2":"2 39166  55.2168 303.4975 0122192  42.8128 318.1796  2.00563330 78795"},{"CCSDS_OMM_VERS":"2.0","COMMENT":"GENERATED VIA SPACE-TRACK.ORG API","CREATION_DATE":"2024-02-16T17:39:09","ORIGINATOR":"18 SPCS","OBJECT_NAME":"NAVSTAR 47 (USA 150)","OBJECT_ID":"2000-025A","CENTER_NAME":"EARTH","REF_FRAME":"TEME","TIME_SYSTEM":"UTC","MEAN_ELEMENT_THEORY":"SGP4","EPOCH":"2024-02-16T02:44:00.704256","MEAN_MOTION":"2.00558154","ECCENTRICITY":"0.00398960","INCLINATION":"54.5701","RA_OF_ASC_NODE":"53.8585","ARG_OF_PERICENTER":"212.0122","MEAN_ANOMALY":"228.5030","EPHEMERIS_TYPE":"0","CLASSIFICATION_TYPE":"U","NORAD_CAT_ID":"26360","ELEMENT_SET_NO":"999","REV_AT_EPOCH":"17418","BSTAR":"0.00000000000000","MEAN_MOTION_DOT":"-0.00000054","MEAN_MOTION_DDOT":"0.0000000000000","SEMIMAJOR_AXIS":"26560.829","PERIOD":"717.996","APOAPSIS":"20288.661","PERIAPSIS":"20076.727","OBJECT_TYPE":"PAYLOAD","RCS_SIZE":"LARGE","COUNTRY_CODE":"US","LAUNCH_DATE":"2000-05-11","SITE":"AFETR","DECAY_DATE":null,"FILE":"4190317","GP_ID":"249395256","TLE_LINE0":"0 NAVSTAR 47 (USA 150)","TLE_LINE1":"1 26360U 00025A   24047.11389704 -.00000054  00000-0  00000-0 0  9994","TLE_LINE2":"2 26360  54.5701  53.8585 0039896 212.0122 228.5030  2.00558154174181"},{"CCSDS_OMM_VERS":"2.0","COMMENT":"GENERATED VIA SPACE-TRACK.ORG API","CREATION_DATE":"2024-02-16T17:39:09","ORIGINATOR":"18 SPCS","OBJECT_NAME":"NAVSTAR 81 (USA 319)","OBJECT_ID":"2021-054A","CENTER_NAME":"EARTH","REF_FRAME":"TEME","TIME_SYSTEM":"UTC","MEAN_ELEMENT_THEORY":"SGP4","EPOCH":"2024-02-16T02:47:57.080832","MEAN_MOTION":"2.00564818","ECCENTRICITY":"0.00140550","INCLINATION":"55.3621","RA_OF_ASC_NODE":"6.6219","ARG_OF_PERICENTER":"226.1619","MEAN_ANOMALY":"263.4760","EPHEMERIS_TYPE":"0","CLASSIFICATION_TYPE":"U","NORAD_CAT_ID":"48859","ELEMENT_SET_NO":"999","REV_AT_EPOCH":"1966","BSTAR":"0.00000000000000","MEAN_MOTION_DOT":"-0.00000096","MEAN_MOTION_DDOT":"0.0000000000000","SEMIMAJOR_AXIS":"26560.241","PERIOD":"717.972","APOAPSIS":"20219.436","PERIAPSIS":"20144.775","OBJECT_TYPE":"PAYLOAD","RCS_SIZE":"LARGE","COUNTRY_CODE":"US","LAUNCH_DATE":"2021-06-17","SITE":"AFETR","DECAY_DATE":null,"FILE":"4190317","GP_ID":"249409378","TLE_LINE0":"0 NAVSTAR 81 (USA 319)","TLE_LINE1":"1 48859U 21054A   24047.11663288 -.00000096  00000-0  00000-0 0  9994","TLE_LINE2":"2 48859  55.3621   6.6219 0014055 226.1619 263.4760  2.00564818 19668"},{"CCSDS_OMM_VERS":"2.0","COMMENT":"GENERATED VIA SPACE-TRACK.ORG API","CREATION_DATE":"2024-02-16T07:06:17","ORIGINATOR":"18 SPCS","OBJECT_NAME":"NAVSTAR 81 (USA 319)","OBJECT_ID":"2021-054A","CENTER_NAME":"EARTH","REF_FRAME":"TEME","TIME_SYSTEM":"UTC","MEAN_ELEMENT_THEORY":"SGP4","EPOCH":"2024-02-16T02:47:57.080832","MEAN_MOTION":"2.00564818","ECCENTRICITY":"0.00140550","INCLINATION":"55.3621","RA_OF_ASC_NODE":"6.6219","ARG_OF_PERICENTER":"226.1619","MEAN_ANOMALY":"263.4760","EPHEMERIS_TYPE":"0","CLASSIFICATION_TYPE":"U","NORAD_CAT_ID":"48859","ELEMENT_SET_NO":"999","REV_AT_EPOCH":"1965","BSTAR":"0.00000000000000","MEAN_MOTION_DOT":"-0.00000096","MEAN_MOTION_DDOT":"0.0000000000000","SEMIMAJOR_AXIS":"26560.241","PERIOD":"717.972","APOAPSIS":"20219.436","PERIAPSIS":"20144.775","OBJECT_TYPE":"PAYLOAD","RCS_SIZE":"LARGE","COUNTRY_CODE":"US","LAUNCH_DATE":"2021-06-17","SITE":"AFETR","DECAY_DATE":null,"FILE":"4189989","GP_ID":"249379351","TLE_LINE0":"0 NAVSTAR 81 (USA 319)","TLE_LINE1":"1 48859U 21054A   24047.11663288 -.00000096  00000-0  00000+0 0  9993","TLE_LINE2":"2 48859  55.3621   6.6219 0014055 226.1619 263.4760  2.00564818 19657"},{"CCSDS_OMM_VERS":"2.0","COMMENT":"GENERATED VIA SPACE-TRACK.ORG API","CREATION_DATE":"2024-02-16T17:39:09","ORIGINATOR":"18 SPCS","OBJECT_NAME":"NAVSTAR 43 (USA 132)","OBJECT_ID":"1997-035A","CENTER_NAME":"EARTH","REF_FRAME":"TEME","TIME_SYSTEM":"UTC","MEAN_ELEMENT_THEORY":"SGP4","EPOCH":"2024-02-16T03:02:40.742880","MEAN_MOTION":"2.00565311","ECCENTRICITY":"0.00760860","INCLINATION":"55.6310","RA_OF_ASC_NODE":"131.9038","ARG_OF_PERICENTER":"52.7702","MEAN_ANOMALY":"307.9542","EPHEMERIS_TYPE":"0","CLASSIFICATION_TYPE":"U","NORAD_CAT_ID":"24876","ELEMENT_SET_NO":"999","REV_AT_EPOCH":"19486","BSTAR":"0.00000000000000","MEAN_MOTION_DOT":"-0.00000029","MEAN_MOTION_DDOT":"0.0000000000000","SEMIMAJOR_AXIS":"26560.197","PERIOD":"717.971","APOAPSIS":"20384.148","PERIAPSIS":"19979.976","OBJECT_TYPE":"PAYLOAD","RCS_SIZE":"LARGE","COUNTRY_CODE":"US","LAUNCH_DATE":"1997-07-23","SITE":"AFETR","DECAY_DATE":null,"FILE":"4190317","GP_ID":"249394945","TLE_LINE0":"0 NAVSTAR 43 (USA 132)","TLE_LINE1":"1 24876U 97035A   24047.12686045 -.00000029  00000-0  00000-0 0  9992","TLE_LINE2":"2 24876  55.6310 131.9038 0076086  52.7702 307.9542  2.00565311194865"},{"CCSDS_OMM_VERS":"2.0","COMMENT":"GENERATED VIA SPACE-TRACK.ORG API","CREATION_DATE":"2024-02-16T17:39:09","ORIGINATOR":"18 SPCS","OBJECT_NAME":"NAVSTAR 82 (USA 343)","OBJECT_ID":"2023-009A","CENTER_NAME":"EARTH","REF_FRAME":"TEME","TIME_SYSTEM":"UTC","MEAN_ELEMENT_THEORY":"SGP4","EPOCH":"2024-02-16T03:15:07.320960","MEAN_MOTION":"2.00572596","ECCENTRICITY":"0.00042170","INCLINATION":"55.0880","RA_OF_ASC_NODE":"181.9513","ARG_OF_PERICENTER":"104.3985","MEAN_ANOMALY":"77.7118","EPHEMERIS_TYPE":"0","CLASSIFICATION_TYPE":"U","NORAD_CAT_ID":"55268","ELEMENT_SET_NO":"999","REV_AT_EPOCH":"815","BSTAR":"0.00000000000000","MEAN_MOTION_DOT":"0.00000037","MEAN_MOTION_DDOT":"0.0000000000000","SEMIMAJOR_AXIS":"26559.554","PERIOD":"717.945","APOAPSIS":"20192.619","PERIAPSIS":"20170.219","OBJECT_TYPE":"PAYLOAD","RCS_SIZE":"LARGE","COUNTRY_CODE":"US","LAUNCH_DATE":"2023-01-18","SITE":"AFETR","DECAY_DATE":null,"FILE":"4190317","GP_ID":"249413266","TLE_LINE0":"0 NAVSTAR 82 (USA 343)","TLE_LINE1":"1 55268U 23009A   24047.13550140  .00000037  00000-0  00000-0 0  9996","TLE_LINE2":"2 55268  55.0880 181.9513 0004217 104.3985  77.7118  2.00572596  8157"},{"CCSDS_OMM_VERS":"2.0","COMMENT":"GENERATED VIA SPACE-TRACK.ORG API","CREATION_DATE":"2024-02-16T07:16:16","ORIGINATOR":"18 SPCS","OBJECT_NAME":"NAVSTAR 82 (USA 343)","OBJECT_ID":"2023-009A","CENTER_NAME":"EARTH","REF_FRAME":"TEME","TIME_SYSTEM":"UTC","MEAN_ELEMENT_THEORY":"SGP4","EPOCH":"2024-02-16T03:15:07.320960","MEAN_MOTION":"2.00572596","ECCENTRICITY":"0.00042170","INCLINATION":"55.0880","RA_OF_ASC_NODE":"181.9513","ARG_OF_PERICENTER":"104.3985","MEAN_ANOMALY":"77.7118","EPHEMERIS_TYPE":"0","CLASSIFICATION_TYPE":"U","NORAD_CAT_ID":"55268","ELEMENT_SET_NO":"999","REV_AT_EPOCH":"814","BSTAR":"0.00000000000000","MEAN_MOTION_DOT":"0.00000037","MEAN_MOTION_DDOT":"0.0000000000000","SEMIMAJOR_AXIS":"26559.554","PERIOD":"717.945","APOAPSIS":"20192.619","PERIAPSIS":"20170.219","OBJECT_TYPE":"PAYLOAD","RCS_SIZE":"LARGE","COUNTRY_CODE":"US","LAUNCH_DATE":"2023-01-18","SITE":"AFETR","DECAY_DATE":null,"FILE":"4190020","GP_ID":"249380848","TLE_LINE0":"0 NAVSTAR 82 (USA 343)","TLE_LINE1":"1 55268U 23009A   24047.13550140  .00000037  00000-0  00000+0 0  9995","TLE_LINE2":"2 55268  55.0880 181.9513 0004217 104.3985  77.7118  2.00572596  8146"},{"CCSDS_OMM_VERS":"2.0","COMMENT":"GENERATED VIA SPACE-TRACK.ORG API","CREATION_DATE":"2024-02-16T17:39:09","ORIGINATOR":"18 SPCS","OBJECT_NAME":"NAVSTAR 74 (USA 262)","OBJECT_ID":"2015-033A","CENTER_NAME":"EARTH","REF_FRAME":"TEME","TIME_SYSTEM":"UTC","MEAN_ELEMENT_THEORY":"SGP4","EPOCH":"2024-02-16T03:39:10.710720","MEAN_MOTION":"2.00573315","ECCENTRICITY":"0.00926500","INCLINATION":"54.7021","RA_OF_ASC_NODE":"302.0293","ARG_OF_PERICENTER":"17.0338","MEAN_ANOMALY":"343.3240","EPHEMERIS_TYPE":"0","CLASSIFICATION_TYPE":"U","NORAD_CAT_ID":"40730","ELEMENT_SET_NO":"999","REV_AT_EPOCH":"6290","BSTAR":"0.00000000000000","MEAN_MOTION_DOT":"-0.00000056","MEAN_MOTION_DDOT":"0.0000000000000","SEMIMAJOR_AXIS":"26559.491","PERIOD":"717.942","APOAPSIS":"20427.429","PERIAPSIS":"19935.282","OBJECT_TYPE":"PAYLOAD","RCS_SIZE":"LARGE","COUNTRY_CODE":"US","LAUNCH_DATE":"2015-07-15","SITE":"AFETR","DECAY_DATE":null,"FILE":"4190317","GP_ID":"249403574","TLE_LINE0":"0 NAVSTAR 74 (USA 262)","TLE_LINE1":"1 40730U 15033A   24047.15220730 -.00000056  00000-0  00000-0 0  9995","TLE_LINE2":"2 40730  54.7021 302.0293 0092650  17.0338 343.3240  2.00573315 62900"}]